{"type": "FeatureCollection", "features": [ {"type": "Feature", "properties": {"norad_id": 66911, "name": "1998-067XX", "group": "stations", "lat": 51.608632060389354, "lon": -124.21787898436746, "alt_km": 405.6613598375616, "timestamp": "2025-12-12T03:50:51.196563+00:00", "meta": {"OBJECT_NAME": "1998-067XX", "OBJECT_ID": "1998-067XX", "EPOCH": "2025-12-11T04:16:32.481408", "MEAN_MOTION": 15.5166419, "ECCENTRICITY": 0.00051917, "INCLINATION": 51.6299, "RA_OF_ASC_NODE": 150.1129, "ARG_OF_PERICENTER": 201.0739, "MEAN_ANOMALY": 159.0038, "EPHEMERIS_TYPE": 0, "CLASSIFICATION_TYPE": "U", "NORAD_CAT_ID": 66911, "ELEMENT_SET_NO": 999, "REV_AT_EPOCH": 136, "BSTAR": 0.0016096113, "MEAN_MOTION_DOT": 0.00098261, "MEAN_MOTION_DDOT": 0}, "tle": {"line1": "1 66911U 98067XX  25345.17815372  .00098261  00000+0  16096-2 0  9995", "line2": "2 66911  51.6299 150.1129 0005191 201.0739 159.0038 15.51664190  1368"}}, "geometry": {"type": "Point", "coordinates": [-124.21787898436746, 51.608632060389354]}}, {"type": "Feature", "properties": {"norad_id": 66912, "name": "1998-067XY", "group": "stations", "lat": 47.675988804642984, "lon": -154.26875385683647, "alt_km": 409.8362817565476, "timestamp": "2025-12-12T03:50:51.196573+00:00", "meta": {"OBJECT_NAME": "1998-067XY", "OBJECT_ID": "1998-067XY", "EPOCH": "2025-12-11T12:04:50.239200", "MEAN_MOTION": 15.50956901, "ECCENTRICITY": 0.0004664, "INCLINATION": 51.6302, "RA_OF_ASC_NODE": 148.5351, "ARG_OF_PERICENTER": 216.8191, "MEAN_ANOMALY": 143.2479, "EPHEMERIS_TYPE": 0, "CLASSIFICATION_TYPE": "U", "NORAD_CAT_ID": 66912, "ELEMENT_SET_NO": 999, "REV_AT_EPOCH": 141, "BSTAR": 0.0010602588, "MEAN_MOTION_DOT": 0.00062656, "MEAN_MOTION_DDOT": 0}, "tle": {"line1": "1 66912U 98067XY  25345.50335925  .00062656  00000+0  10603-2 0  9991", "line2": "2 66912  51.6302 148.5351 0004664 216.8191 143.2479 15.50956901  1415"}}, "geometry": {"type": "Point", "coordinates": [-154.26875385683647, 47.675988804642984]}}]}